[{"OBJECT_NAME":"STARLINK-32615","OBJECT_ID":"2024-216C","EPOCH":"2026-03-09T19:35:17.856960","MEAN_MOTION":15.2755379,"ECCENTRICITY":0.00029463,"INCLINATION":43.0001,"RA_OF_ASC_NODE":255.7206,"ARG_OF_PERICENTER":281.4764,"MEAN_ANOMALY":78.5756,"EPHEMERIS_TYPE":0,"CLASSIFICATION_TYPE":"U","NORAD_CAT_ID":62034,"ELEMENT_SET_NO":999,"REV_AT_EPOCH":7273,"BSTAR":0.00067424079,"MEAN_MOTION_DOT":0.00018324,"MEAN_MOTION_DDOT":0},{"OBJECT_NAME":"LIME","OBJECT_ID":"2025-009AR","EPOCH":"2026-03-09T17:44:15.459648","MEAN_MOTION":15.28703313,"ECCENTRICITY":0.00016347,"INCLINATION":97.3985,"RA_OF_ASC_NODE":151.4831,"ARG_OF_PERICENTER":35.9029,"MEAN_ANOMALY":324.232,"EPHEMERIS_TYPE":0,"CLASSIFICATION_TYPE":"U","NORAD_CAT_ID":62648,"ELEMENT_SET_NO":999,"REV_AT_EPOCH":6376,"BSTAR":0.00047722827,"MEAN_MOTION_DOT":0.00013254,"MEAN_MOTION_DDOT":0}]
